STARLINK-31479          
1 59316U 24056W   26068.53557946  .00000233  00000+0  17998-4 0  9992
2 59316  43.0025 235.6488 0001792 279.3374  80.7275 15.27578422111083
HERMES-3                
1 63835U 25052BR  26068.93751242  .00020316  00000+0  69958-3 0  9995
2 63835  97.3987 324.6131 0007993 112.9583 247.2502 15.30039785 54863
